CCSDS_OEM_VERS = 2.0
CREATION_DATE  = 2023-05-12T18:00:59.382
ORIGINATOR     = NASA/JSC/FOD/TOPO

META_START
OBJECT_NAME          = ISS
OBJECT_ID            = 1998-067-A
CENTER_NAME          = Earth
REF_FRAME            = EME2000
TIME_SYSTEM          = UTC
START_TIME           = 2023-05-12T12:00:00.000
USEABLE_START_TIME   = 2023-05-12T12:00:00.000
USEABLE_STOP_TIME    = 2023-05-27T12:00:00.000
STOP_TIME            = 2023-05-27T12:00:00.000
META_STOP

COMMENT Source: This file was produced by the TOPO office within FOD at JSC.
COMMENT Units are in kg and m^2
COMMENT MASS=446095.00
COMMENT DRAG_AREA=1333.70
COMMENT DRAG_COEFF=2.30
COMMENT SOLAR_RAD_AREA=0.00
COMMENT SOLAR_RAD_COEFF=0.00
COMMENT Orbits start at the ascending node epoch
COMMENT ISS first asc. node: EPOCH = 2023-05-12T12:52:50.680 $ ORBIT = 3625 $ LAN(DEG) = 81.98690
COMMENT ISS last asc. node : EPOCH = 2023-05-27T11:49:41.064 $ ORBIT = 3857 $ LAN(DEG) = 8.91942
COMMENT Begin sequence of events
COMMENT TRAJECTORY EVENT SUMMARY:
COMMENT 
COMMENT |       EVENT        |       TIG        | ORB |   DV    |   HA    |   HP    |
COMMENT |                    |       GMT        |     |   M/S   |   KM    |   KM    |
COMMENT |                    |                  |     |  (F/S)  |  (NM)   |  (NM)   |
COMMENT =============================================================================
COMMENT  GMT138 Reboost Preli  138:16:43:00.000             0.6     422.8     408.3
COMMENT                                                    (2.0)   (228.3)   (220.5)
COMMENT 
COMMENT  Ax-2 Launch           141:21:37:07.000             0.0     423.4     409.4
COMMENT                                                    (0.0)   (228.6)   (221.0)
COMMENT 
COMMENT  Ax-2 Docking          142:13:24:00.000             0.0     423.3     409.0
COMMENT                                                    (0.0)   (228.6)   (220.8)
COMMENT 
COMMENT  84P Launch            144:12:56:06.000             0.0     423.4     408.5
COMMENT                                                    (0.0)   (228.6)   (220.6)
COMMENT 
COMMENT  84P Docking           144:16:20:48.000             0.0     423.4     408.4
COMMENT                                                    (0.0)   (228.6)   (220.5)
COMMENT 
COMMENT =============================================================================
COMMENT End sequence of events
2023-05-23T16:32:00.000 260.734988886880 6780.908192330050 -282.184388095778 -4.73299079011376 0.42520594679929 6.01537958204944
2023-05-23T16:36:00.000 -870.849985665223 6634.355157212640 1154.179615266310 -4.63911852060500 -1.63919789451618 5.88078318486425
2023-05-23T16:40:00.000 -1938.887215220450 6003.645508727600 2506.071653453050 -4.20666382129720 -3.58449983029679 5.31576906973716
2023-05-23T16:44:00.000 -2865.444915943890 4934.818199345210 3674.571035107320 -3.46742243136776 -5.26769148280633 4.36200021534345
2023-05-23T16:48:00.000 -3583.015092908460 3506.048019435870 4574.305749326910 -2.47585813807336 -6.56567761842800 3.08993260782625
2023-05-23T16:52:00.000 -4039.456775832350 1821.738172829920 5139.716976813220 -1.30471574901053 -7.38428606206723 1.59312416538575
2023-05-23T16:56:00.000 -4201.728683817620 4.750740601177 5329.762928957930 -0.03941078402149 -7.66471006791235 -0.01895120515033
2023-05-23T17:00:00.000 -4058.188603833410 -1812.583604192710 5130.790559493540 1.22820846401008 -7.38724481787125 -1.62891436266805
2023-05-23T17:04:00.000 -3619.370864904400 -3498.028392415250 4557.434438774940 2.40626470895221 -6.57234996134039 -3.11978103289935
2023-05-23T17:08:00.000 -2917.215976906720 -4928.959767275660 3651.542282038650 3.40931091837112 -5.27921641643318 -4.38310790837087
2023-05-23T17:12:00.000 -2002.787446259880 -6001.235029550480 2479.185430585200 4.16438978601186 -3.60182136347681 -5.32669067088622
2023-05-23T17:16:00.000 -942.611970241285 -6636.825619830540 1125.905680769930 4.61642338832856 -1.66248060367883 -5.88154157886619
2023-05-23T17:20:00.000 186.151149761969 -6789.592819417880 -309.529037449143 4.73249344025712 0.39697221900194 -6.00715017457540
2023-05-23T17:24:00.000 1301.397511529620 -6448.731504580210 -1722.406871387000 4.50457004063797 2.42586808741119 -5.69485130936410
2023-05-23T17:28:00.000 2322.143672519010 -5639.484338165350 -3009.839742528980 3.94993100516200 4.27638358081743 -4.96834429459708
2023-05-23T17:32:00.000 3174.454565932010 -4421.116485531570 -4078.317042280860 3.10960654851960 5.81458052725849 -3.88151081992733
2023-05-23T17:36:00.000 3796.767408662190 -2882.387038907290 -4850.450996515970 2.04496179055130 6.93004296292291 -2.51391034396447
2023-05-23T17:40:00.000 4144.221132622760 -1134.976440257440 -5270.431454404980 0.83296214335140 7.54321019299411 -0.96469228468597
2023-05-23T17:44:00.000 4191.752090478210 694.573604640619 -5307.887004675810 -0.43935886797374 7.61041316192680 0.65456324003324
2023-05-23T17:48:00.000 3935.806548147910 2473.821880403890 -4959.961261383250 -1.68077165131613 7.12642061660335 2.22741419359177
2023-05-23T17:52:00.000 3394.625281079000 4073.756177783880 -4251.553502977190 -2.80190772215416 6.12493506078253 3.64030715638314
2023-05-23T17:56:00.000 2607.061450631760 5377.970773579560 -3233.689741996770 -3.72137521876841 4.67680898237009 4.79035844072446
2023-05-23T18:00:00.000 1629.952581289570 6291.124441788400 -1980.055884783480 -4.37164174415348 2.88581388048265 5.59281347858914
2023-05-23T18:04:00.000 534.147271699646 6746.072989517210 -581.825974530384 -4.70425723237228 0.88180112638027 5.98768505881101
2023-05-23T18:08:00.000 -600.591021018533 6709.074722679960 858.930648185987 -4.69398506393324 -1.18845901402016 5.94487310048961
2023-05-23T18:12:00.000 -1691.496518100920 6182.511807161030 2236.820368555360 -4.34120581358865 -3.17270686504119 5.46699775679051
2023-05-23T18:16:00.000 -2658.973999369670 5204.770137948650 3451.017263420800 -3.67177030307809 -4.92510878225119 4.58922112467938
2023-05-23T18:20:00.000 -3432.504555186630 3847.347714839650 4412.774731851150 -2.73496898452588 -6.31732067857047 3.37637139065741
2023-05-23T18:24:00.000 -3955.837731650740 2209.463619082460 5051.967930233840 -1.59962193490204 -7.24809632869835 1.91776206549701
2023-05-23T18:28:00.000 -4191.051654861940 410.639489589929 5322.157007290100 -0.34864977798478 -7.65043750935411 0.32017924252841
2023-05-23T18:32:00.000 -4121.205962170560 -1418.080506720450 5203.843732102560 0.92706690920166 -7.49580450815226 -1.29998573551970
2023-05-23T18:36:00.000 -3751.490398642930 -3143.611517639930 4705.798647013980 2.13506339648873 -6.79580415682837 -2.82494825433517
2023-05-23T18:40:00.000 -3108.830221571660 -4640.412657883580 3864.394726135690 3.18775149578508 -5.60133288067425 -4.14382747013254
2023-05-23T18:44:00.000 -2239.960199968310 -5799.552649992330 2741.003704423460 4.00861153119704 -3.99915157593095 -5.16041663934309
2023-05-23T18:48:00.000 -1208.090160167600 -6536.677599634650 1417.595968879220 4.53777383421584 -2.10609468079595 -5.80041330598167
2023-05-23T18:52:00.000 -88.311163339204 -6798.242484946580 -9.247773083531 4.73672297916903 -0.06047698463950 -6.01711921697483
2023-05-23T18:56:00.000 1037.913751544720 -6565.473798384260 -1435.429107611280 4.59124039645555 1.98805050221945 -5.79502770907749
2023-05-23T19:00:00.000 2088.763774261180 -5855.736257846530 -2757.042673952150 4.11256503874894 3.88999774987802 -5.15123189043210
2023-05-23T19:04:00.000 2988.076625197810 -4721.088588851750 -3878.044125672410 3.33625254372558 5.50750952595055 -4.13363248390982
2023-05-23T19:08:00.000 3670.855301083400 -3244.269489728250 -4717.199008020990 2.31913514447528 6.72428495115593 -2.81689832810499
2023-05-23T19:12:00.000 4087.860173685600 -1532.536073251500 -5213.837062366230 1.13488380998746 7.45343219430821 -1.29664928711356
2023-05-23T19:16:00.000 4209.027624229790 290.111065686697 -5332.061042102030 -0.13133263748012 7.64302991306338 0.31750384231678
2023-05-23T19:20:00.000 4025.524354655690 2091.745186151420 -5063.211906803330 -1.38875946984827 7.27927051838592 1.90948766461350
2023-05-23T19:24:00.000 3550.375085487290 3741.804532331450 -4426.487690386410 -2.54700479062649 6.38732327281210 3.36451746575005
2023-05-23T19:28:00.000 2817.642020741430 5120.347080563130 -3467.701511084670 -3.52216933517261 5.03010707675245 4.57687992077485
2023-05-23T19:32:00.000 1880.142135472570 6126.718185530720 -2256.188972606220 -4.24283090030322 3.30460795866591 5.45748273253430
2023-05-23T19:36:00.000 805.782496601112 6687.032194042520 -879.978193764404 -4.65550594596027 1.33566670631273 5.94070887361976
2023-05-23T19:40:00.000 -327.307027921580 6759.848480323560 560.546774842794 -4.72910364270237 -0.73287224840129 5.98996018686061
2023-05-23T19:44:00.000 -1436.510685681220 6339.457320466040 1960.045250119840 -4.45761951541107 -2.74897752038309 5.60086148820189
2023-05-23T19:48:00.000 -2440.882961010840 5456.447925786590 3216.097934561660 -3.86092796430191 -4.56425195933291 4.80200542419090
2023-05-23T19:52:00.000 -3267.204825937210 4175.387252352840 4236.880809638380 -2.98303785391363 -6.04573312109524 3.65242619710845
2023-05-23T19:56:00.000 -3855.361209447900 2589.915617511430 4947.925633616230 -1.88842096545201 -7.08556779032632 2.23677579005747
2023-05-23T20:00:00.000 -4162.682250541520 815.758308583251 5297.516714965030 -0.65706896010636 -7.60863153586009 0.65880244567668
2023-05-23T20:04:00.000 -4166.973735244220 -1017.794496471210 5260.364472708260 0.62143617496293 -7.57762482719405 -0.96640093361677
2023-05-23T20:08:00.000 -3868.044710358190 -2777.284972083600 4839.329726788090 1.85440094518098 -6.99524386612908 -2.52070298963281
2023-05-23T20:12:00.000 -3287.681341643560 -4334.691774391280 4065.175808487880 2.95243652918201 -5.90385107297055 -3.89108206450344
2023-05-23T20:16:00.000 -2468.094039817600 -5576.669775087780 2994.372745390260 3.83575157444443 -4.38271773712257 -4.97762107550363
